CCSDS_OMM_VERS = 2.0
CREATION_DATE  = 
ORIGINATOR     = 

OBJECT_NAME    = STARLINK-35523
OBJECT_ID      = 2025-225A
CENTER_NAME    = EARTH
REF_FRAME      = TEME
TIME_SYSTEM    = UTC
MEAN_ELEMENT_THEORY = SGP/SGP4

EPOCH          = 2025-11-06T16:48:16.042752
MEAN_MOTION    = 15.49392342
ECCENTRICITY   = .00010902
INCLINATION    = 53.1604
RA_OF_ASC_NODE = 18.6774
ARG_OF_PERICENTER = 96.8568
MEAN_ANOMALY   = 263.2565

EPHEMERIS_TYPE = 0
CLASSIFICATION_TYPE = U
NORAD_CAT_ID   = 65910
ELEMENT_SET_NO = 999
REV_AT_EPOCH   = 555
BSTAR          = .15128799E-2
MEAN_MOTION_DOT = .8486E-3
MEAN_MOTION_DDOT = 0

CCSDS_OMM_VERS = 2.0
CREATION_DATE  = 
ORIGINATOR     = 

OBJECT_NAME    = STARLINK-35160
OBJECT_ID      = 2025-225B
CENTER_NAME    = EARTH
REF_FRAME      = TEME
TIME_SYSTEM    = UTC
MEAN_ELEMENT_THEORY = SGP/SGP4

EPOCH          = 2025-11-06T18:20:39.589440
MEAN_MOTION    = 15.49357670
ECCENTRICITY   = .00011742
INCLINATION    = 53.1601
RA_OF_ASC_NODE = 18.3671
ARG_OF_PERICENTER = 88.1153
MEAN_ANOMALY   = 271.9991

EPHEMERIS_TYPE = 0
CLASSIFICATION_TYPE = U
NORAD_CAT_ID   = 65911
ELEMENT_SET_NO = 999
REV_AT_EPOCH   = 556
BSTAR          = .13280709E-2
MEAN_MOTION_DOT = .74246E-3
MEAN_MOTION_DDOT = 0

CCSDS_OMM_VERS = 2.0
CREATION_DATE  = 
ORIGINATOR     = 

OBJECT_NAME    = STARLINK-35508
OBJECT_ID      = 2025-225C
CENTER_NAME    = EARTH
REF_FRAME      = TEME
TIME_SYSTEM    = UTC
MEAN_ELEMENT_THEORY = SGP/SGP4

EPOCH          = 2025-11-06T16:47:15.357984
MEAN_MOTION    = 15.49321178
ECCENTRICITY   = .00011737
INCLINATION    = 53.1604
RA_OF_ASC_NODE = 18.6720
ARG_OF_PERICENTER = 73.4639
MEAN_ANOMALY   = 286.6499

EPHEMERIS_TYPE = 0
CLASSIFICATION_TYPE = U
NORAD_CAT_ID   = 65912
ELEMENT_SET_NO = 999
REV_AT_EPOCH   = 555
BSTAR          = .10933444E-2
MEAN_MOTION_DOT = .6086E-3
MEAN_MOTION_DDOT = 0

CCSDS_OMM_VERS = 2.0
CREATION_DATE  = 
ORIGINATOR     = 

OBJECT_NAME    = STARLINK-35472
OBJECT_ID      = 2025-225D
CENTER_NAME    = EARTH
REF_FRAME      = TEME
TIME_SYSTEM    = UTC
MEAN_ELEMENT_THEORY = SGP/SGP4

EPOCH          = 2025-11-06T16:46:46.805376
MEAN_MOTION    = 15.49355562
ECCENTRICITY   = .00011405
INCLINATION    = 53.1606
RA_OF_ASC_NODE = 18.6702
ARG_OF_PERICENTER = 92.0391
MEAN_ANOMALY   = 268.0749

EPHEMERIS_TYPE = 0
CLASSIFICATION_TYPE = U
NORAD_CAT_ID   = 65913
ELEMENT_SET_NO = 999
REV_AT_EPOCH   = 555
BSTAR          = .14131633E-2
MEAN_MOTION_DOT = .79075E-3
MEAN_MOTION_DDOT = 0

CCSDS_OMM_VERS = 2.0
CREATION_DATE  = 
ORIGINATOR     = 

OBJECT_NAME    = STARLINK-35524
OBJECT_ID      = 2025-225E
CENTER_NAME    = EARTH
REF_FRAME      = TEME
TIME_SYSTEM    = UTC
MEAN_ELEMENT_THEORY = SGP/SGP4

EPOCH          = 2025-11-06T16:46:17.221152
MEAN_MOTION    = 15.49349870
ECCENTRICITY   = .00012458
INCLINATION    = 53.1602
RA_OF_ASC_NODE = 18.6680
ARG_OF_PERICENTER = 87.4542
MEAN_ANOMALY   = 272.6609

EPHEMERIS_TYPE = 0
CLASSIFICATION_TYPE = U
NORAD_CAT_ID   = 65914
ELEMENT_SET_NO = 999
REV_AT_EPOCH   = 555
BSTAR          = .12425079E-2
MEAN_MOTION_DOT = .69371E-3
MEAN_MOTION_DDOT = 0

CCSDS_OMM_VERS = 2.0
CREATION_DATE  = 
ORIGINATOR     = 

OBJECT_NAME    = STARLINK-35539
OBJECT_ID      = 2025-225F
CENTER_NAME    = EARTH
REF_FRAME      = TEME
TIME_SYSTEM    = UTC
MEAN_ELEMENT_THEORY = SGP/SGP4

EPOCH          = 2025-11-06T16:57:12.810528
MEAN_MOTION    = 15.39659527
ECCENTRICITY   = .00011071
INCLINATION    = 53.1605
RA_OF_ASC_NODE = 19.4375
ARG_OF_PERICENTER = 85.5731
MEAN_ANOMALY   = 274.5400

EPHEMERIS_TYPE = 0
CLASSIFICATION_TYPE = U
NORAD_CAT_ID   = 65915
ELEMENT_SET_NO = 999
REV_AT_EPOCH   = 554
BSTAR          = .1790954E-2
MEAN_MOTION_DOT = .7201E-3
MEAN_MOTION_DDOT = 0

CCSDS_OMM_VERS = 2.0
CREATION_DATE  = 
ORIGINATOR     = 

OBJECT_NAME    = STARLINK-35521
OBJECT_ID      = 2025-225G
CENTER_NAME    = EARTH
REF_FRAME      = TEME
TIME_SYSTEM    = UTC
MEAN_ELEMENT_THEORY = SGP/SGP4

EPOCH          = 2025-11-06T16:45:18.916704
MEAN_MOTION    = 15.49341226
ECCENTRICITY   = .00011658
INCLINATION    = 53.1605
RA_OF_ASC_NODE = 18.6625
ARG_OF_PERICENTER = 50.1857
MEAN_ANOMALY   = 309.9255

EPHEMERIS_TYPE = 0
CLASSIFICATION_TYPE = U
NORAD_CAT_ID   = 65916
ELEMENT_SET_NO = 999
REV_AT_EPOCH   = 555
BSTAR          = .13563654E-2
MEAN_MOTION_DOT = .75809E-3
MEAN_MOTION_DDOT = 0

CCSDS_OMM_VERS = 2.0
CREATION_DATE  = 
ORIGINATOR     = 

OBJECT_NAME    = STARLINK-35478
OBJECT_ID      = 2025-225H
CENTER_NAME    = EARTH
REF_FRAME      = TEME
TIME_SYSTEM    = UTC
MEAN_ELEMENT_THEORY = SGP/SGP4

EPOCH          = 2025-11-06T19:50:05.717184
MEAN_MOTION    = 15.49331642
ECCENTRICITY   = .00012532
INCLINATION    = 53.1604
RA_OF_ASC_NODE = 18.0414
ARG_OF_PERICENTER = 60.6019
MEAN_ANOMALY   = 299.5116

EPHEMERIS_TYPE = 0
CLASSIFICATION_TYPE = U
NORAD_CAT_ID   = 65917
ELEMENT_SET_NO = 999
REV_AT_EPOCH   = 557
BSTAR          = .14122691E-2
MEAN_MOTION_DOT = .78957E-3
MEAN_MOTION_DDOT = 0

CCSDS_OMM_VERS = 2.0
CREATION_DATE  = 
ORIGINATOR     = 

OBJECT_NAME    = STARLINK-35516
OBJECT_ID      = 2025-225J
CENTER_NAME    = EARTH
REF_FRAME      = TEME
TIME_SYSTEM    = UTC
MEAN_ELEMENT_THEORY = SGP/SGP4

EPOCH          = 2025-11-06T19:50:35.501856
MEAN_MOTION    = 15.49341889
ECCENTRICITY   = .00025274
INCLINATION    = 53.1605
RA_OF_ASC_NODE = 18.0441
ARG_OF_PERICENTER = 53.6084
MEAN_ANOMALY   = 306.5158

EPHEMERIS_TYPE = 0
CLASSIFICATION_TYPE = U
NORAD_CAT_ID   = 65918
ELEMENT_SET_NO = 999
REV_AT_EPOCH   = 557
BSTAR          = .1786606E-2
MEAN_MOTION_DOT = .100322E-2
MEAN_MOTION_DDOT = 0

CCSDS_OMM_VERS = 2.0
CREATION_DATE  = 
ORIGINATOR     = 

OBJECT_NAME    = STARLINK-35519
OBJECT_ID      = 2025-225K
CENTER_NAME    = EARTH
REF_FRAME      = TEME
TIME_SYSTEM    = UTC
MEAN_ELEMENT_THEORY = SGP/SGP4

EPOCH          = 2025-11-06T18:16:42.660768
MEAN_MOTION    = 15.49326526
ECCENTRICITY   = .00016313
INCLINATION    = 53.1601
RA_OF_ASC_NODE = 18.3477
ARG_OF_PERICENTER = 64.5520
MEAN_ANOMALY   = 295.5658

EPHEMERIS_TYPE = 0
CLASSIFICATION_TYPE = U
NORAD_CAT_ID   = 65919
ELEMENT_SET_NO = 999
REV_AT_EPOCH   = 556
BSTAR          = .95425433E-3
MEAN_MOTION_DOT = .53018E-3
MEAN_MOTION_DDOT = 0

CCSDS_OMM_VERS = 2.0
CREATION_DATE  = 
ORIGINATOR     = 

OBJECT_NAME    = STARLINK-33902
OBJECT_ID      = 2025-225L
CENTER_NAME    = EARTH
REF_FRAME      = TEME
TIME_SYSTEM    = UTC
MEAN_ELEMENT_THEORY = SGP/SGP4

EPOCH          = 2025-11-06T15:10:25.758048
MEAN_MOTION    = 15.49348060
ECCENTRICITY   = .00011606
INCLINATION    = 53.1604
RA_OF_ASC_NODE = 18.9612
ARG_OF_PERICENTER = 87.5975
MEAN_ANOMALY   = 272.5167

EPHEMERIS_TYPE = 0
CLASSIFICATION_TYPE = U
NORAD_CAT_ID   = 65920
ELEMENT_SET_NO = 999
REV_AT_EPOCH   = 554
BSTAR          = .14610965E-2
MEAN_MOTION_DOT = .81779E-3
MEAN_MOTION_DDOT = 0

CCSDS_OMM_VERS = 2.0
CREATION_DATE  = 
ORIGINATOR     = 

OBJECT_NAME    = STARLINK-35530
OBJECT_ID      = 2025-225M
CENTER_NAME    = EARTH
REF_FRAME      = TEME
TIME_SYSTEM    = UTC
MEAN_ELEMENT_THEORY = SGP/SGP4

EPOCH          = 2025-11-06T18:15:43.697952
MEAN_MOTION    = 15.49329485
ECCENTRICITY   = .00028677
INCLINATION    = 53.1601
RA_OF_ASC_NODE = 18.3426
ARG_OF_PERICENTER = 60.4667
MEAN_ANOMALY   = 299.6628

EPHEMERIS_TYPE = 0
CLASSIFICATION_TYPE = U
NORAD_CAT_ID   = 65921
ELEMENT_SET_NO = 999
REV_AT_EPOCH   = 556
BSTAR          = .15869419E-2
MEAN_MOTION_DOT = .88892E-3
MEAN_MOTION_DDOT = 0

