STARLINK-35523          
1 65910U 25225A   25310.70018568  .00084860  00000+0  15129-2 0  9998
2 65910  53.1604  18.6774 0001090  96.8568 263.2565 15.49392342  5553
STARLINK-35160          
1 65911U 25225B   25310.76434710  .00074246  00000+0  13281-2 0  9990
2 65911  53.1601  18.3671 0001174  88.1153 271.9991 15.49357670  5566
STARLINK-35508          
1 65912U 25225C   25310.69948331  .00060860  00000+0  10933-2 0  9990
2 65912  53.1604  18.6720 0001173  73.4639 286.6499 15.49321178  5552
STARLINK-35472          
1 65913U 25225D   25310.69915284  .00079075  00000+0  14132-2 0  9995
2 65913  53.1606  18.6702 0001140  92.0391 268.0749 15.49355562  5557
STARLINK-35524          
1 65914U 25225E   25310.69881043  .00069371  00000+0  12425-2 0  9992
2 65914  53.1602  18.6680 0001245  87.4542 272.6609 15.49349870  5552
STARLINK-35539          
1 65915U 25225F   25310.70639827  .00072010  00000+0  17910-2 0  9994
2 65915  53.1605  19.4375 0001107  85.5731 274.5400 15.39659527  5543
STARLINK-35521          
1 65916U 25225G   25310.69813561  .00075809  00000+0  13564-2 0  9992
2 65916  53.1605  18.6625 0001165  50.1857 309.9255 15.49341226  5551
STARLINK-35478          
1 65917U 25225H   25310.82645506  .00078957  00000+0  14123-2 0  9999
2 65917  53.1604  18.0414 0001253  60.6019 299.5116 15.49331642  5578
STARLINK-35516          
1 65918U 25225J   25310.82679979  .00100322  00000+0  17866-2 0  9990
2 65918  53.1605  18.0441 0002527  53.6084 306.5158 15.49341889  5578
STARLINK-35519          
1 65919U 25225K   25310.76160487  .00053018  00000+0  95425-3 0  9990
2 65919  53.1601  18.3477 0001631  64.5520 295.5658 15.49326526  5560
STARLINK-33902          
1 65920U 25225L   25310.63224257  .00081779  00000+0  14611-2 0  9996
2 65920  53.1604  18.9612 0001160  87.5975 272.5167 15.49348060  5543
STARLINK-35530          
1 65921U 25225M   25310.76092243  .00088892  00000+0  15869-2 0  9998
2 65921  53.1601  18.3426 0002867  60.4667 299.6628 15.49329485  5565
